NORAD_CAT_ID,OBJECT_NAME,OBJECT_TYPE,EPOCH,MEAN_MOTION,ECCENTRICITY,INCLINATION,RA_OF_ASC_NODE,ARG_OF_PERICENTER,MEAN_ANOMALY,BSTAR,MEAN_MOTION_DOT,MEAN_MOTION_DDOT,TLE_LINE0,TLE_LINE1,TLE_LINE2,SEMIMAJOR_AXIS,PERIOD,APOGEE,PERIGEE,DECAYED
49762.0,STARLINK-3195,PAYLOAD,2022-05-30 14:00:01,15.08813405,0.0002342,53.219,210.1763,27.3886,291.7915,0.0027324,0.00043436,0.0,0 STARLINK-3195,1 49762U 21115AQ  22150.58334491  .00043436  00000-0  27324-2 0  9995,2 49762  53.2190 210.1763 0002342  27.3886 291.7915 15.08813405 28598,6917.962,95.439,541.447,538.206,0.0
49762.0,STARLINK-3195,PAYLOAD,2022-05-30 22:00:00,15.08836839,0.000215,53.2188,208.6785,29.0193,301.746,0.00017209,2.451e-05,0.0,0 STARLINK-3195,1 49762U 21115AQ  22150.91667824  .00002451  00000-0  17209-3 0  9995,2 49762  53.2188 208.6785 0002150  29.0193 301.7460 15.08836839  1301,6917.89,95.438,541.242,538.268,0.0
49762.0,STARLINK-3195,PAYLOAD,2022-05-31 06:00:02,15.088255599999998,0.000213,53.2183,207.1757,29.9853,312.4324,0.0051876,0.00083217,0.0,0 STARLINK-3195,1 49762U 21115AQ  22151.25002315  .00083217  00000-0  51876-2 0  9997,2 49762  53.2183 207.1757 0002130  29.9853 312.4324 15.08825560 28697,6917.925,95.438,541.263,538.316,0.0
49762.0,STARLINK-3195,PAYLOAD,2022-05-31 14:01:38,15.08836484,0.000222,53.2194,205.6802,31.7765,328.3361,5.1987e-05,5.39e-06,0.0,0 STARLINK-3195,1 49762U 21115AQ  22151.58447388  .00000539  00000-0  51987-4 0  9997,2 49762  53.2194 205.6802 0002220  31.7765 328.3361 15.08836484 28746,6917.891,95.438,541.2919999999998,538.22,0.0
49762.0,STARLINK-3195,PAYLOAD,2022-05-31 20:23:11,15.08834962,0.0002297,53.2198,204.4908,33.421,326.6927,0.00012596,1.717e-05,0.0,0 STARLINK-3195,1 49762U 21115AQ  22151.84943385  .00001717  00000-0  12596-3 0  9995,2 49762  53.2198 204.4908 0002297  33.4210 326.6927 15.08834962 27671,6917.896,95.438,541.35,538.172,0.0
49762.0,STARLINK-3195,PAYLOAD,2022-06-01 20:00:01,15.08841504,0.0002192,53.2174,200.0752,28.2746,279.2046,-0.0016902,-0.00027089,0.0,0 STARLINK-3195,1 49762U 21115AQ  22152.83334491 -.00027089  00000-0 -16902-2 0  9993,2 49762  53.2174 200.0752 0002192  28.2746 279.2046 15.08841504 28939,6917.876,95.437,541.257,538.224,0.0
49762.0,STARLINK-3195,PAYLOAD,2022-06-03 02:26:17,15.08842688,0.0002575,53.2193,194.3811,35.9359,324.1806,-1.2979e-05,-4.95e-06,0.0,0 STARLINK-3195,1 49762U 21115AQ  22154.10159641 -.00000495  00000-0 -12979-4 0  9991,2 49762  53.2193 194.3811 0002575  35.9359 324.1806 15.08842688 29121,6917.871999999999,95.437,541.519,537.956,0.0
49762.0,STARLINK-3195,PAYLOAD,2022-06-03 10:23:13,15.08843967,0.0002408,53.2198,192.8956,33.1886,326.9257,-4.2704e-05,-9.68e-06,0.0,0 STARLINK-3195,1 49762U 21115AQ  22154.43279518 -.00000968  00000-0 -42704-4 0  9997,2 49762  53.2198 192.8956 0002408  33.1886 326.9257 15.08843967 28062,6917.868,95.437,541.399,538.067,0.0
49762.0,STARLINK-3195,PAYLOAD,2022-06-04 11:49:23,15.0884173,0.0002367,53.2196,188.1367,33.9127,326.2016,7.3444e-05,8.81e-06,0.0,0 STARLINK-3195,1 49762U 21115AQ  22155.49263090  .00000881  00000-0  73444-4 0  9999,2 49762  53.2196 188.1367 0002367  33.9127 326.2016 15.08841730 29337,6917.875,95.437,541.378,538.1030000000002,0.0
49762.0,STARLINK-3195,PAYLOAD,2022-06-05 22:00:00,15.08808639,0.0002422,53.2185,181.7446,32.4919,147.0157,0.002312,0.00036668,0.0,0 STARLINK-3195,1 49762U 21115AQ  22156.91667824  .00036668  00000-0  23120-2 0  9996,2 49762  53.2185 181.7446 0002422  32.4919 147.0157 15.08808639 29546,6917.976,95.44,541.5169999999998,538.1659999999998,0.0
49762.0,STARLINK-3195,PAYLOAD,2022-06-06 14:00:01,15.08827455,0.0002679,53.2186,178.7538,31.1556,171.5095,0.00078321,0.00012195,0.0,0 STARLINK-3195,1 49762U 21115AQ  22157.58334491  .00012195  00000-0  78321-3 0  9994,2 49762  53.2186 178.7538 0002679  31.1556 171.5095 15.08827455 29643,6917.919,95.438,541.637,537.93,0.0
49762.0,STARLINK-3195,PAYLOAD,2022-06-06 20:00:01,15.08825171,0.000248,53.2189,177.6302,33.604,87.7554,0.00066247,0.00010267,0.0,0 STARLINK-3195,1 49762U 21115AQ  22157.83334491  .00010267  00000-0  66247-3 0  9994,2 49762  53.2189 177.6302 0002480  33.6040  87.7554 15.08825171  1302,6917.926,95.438,541.506,538.075,0.0
49762.0,STARLINK-3195,PAYLOAD,2022-06-07 09:46:21,15.088343099999998,0.0002553,53.2191,175.0543,35.5992,324.517,-3.0982e-06,-3.38e-06,0.0,0 STARLINK-3195,1 49762U 21115AQ  22158.40719812 -.00000338  00000-0 -30982-5 0  9991,2 49762  53.2191 175.0543 0002553  35.5992 324.5170 15.08834310 29774,6917.898,95.438,541.529,537.997,0.0
49762.0,STARLINK-3195,PAYLOAD,2022-06-07 17:43:17,15.0883307,0.0002601,53.2191,173.5674,35.8924,324.2242,2.4799e-05,1.06e-06,0.0,0 STARLINK-3195,1 49762U 21115AQ  22158.73839942  .00000106  00000-0  24799-4 0  9993,2 49762  53.2191 173.5674 0002601  35.8924 324.2242 15.08833070 28716,6917.901999999999,95.438,541.566,537.967,0.0
49762.0,STARLINK-3195,PAYLOAD,2022-06-08 09:37:09,15.08834627,0.0002608,53.2191,170.59400000000005,36.7234,323.3937,6.1059e-05,6.83e-06,0.0,0 STARLINK-3195,1 49762U 21115AQ  22159.40080008  .00000683  00000-0  61059-4 0  9999,2 49762  53.2191 170.5940 0002608  36.7234 323.3937 15.08834627 28811,6917.897,95.438,541.566,537.9580000000002,0.0
49762.0,STARLINK-3195,PAYLOAD,2022-06-08 17:34:04,15.08835731,0.0002633,53.2192,169.1073,37.2448,322.8726,6.3022e-05,7.15e-06,0.0,0 STARLINK-3195,1 49762U 21115AQ  22159.73200054  .00000715  00000-0  63022-4 0  9998,2 49762  53.2192 169.1073 0002633  37.2448 322.8726 15.08835731 29979,6917.893,95.438,541.58,537.937,0.0
49762.0,STARLINK-3195,PAYLOAD,2022-06-09 09:27:56,15.08839302,0.000268,53.2193,166.1339,38.4631,321.6552,6.0772e-05,6.79e-06,0.0,0 STARLINK-3195,1 49762U 21115AQ  22160.39439968  .00000679  00000-0  60772-4 0  9998,2 49762  53.2193 166.1339 0002680  38.4631 321.6552 15.08839302 28961,6917.8830000000025,95.438,541.602,537.894,0.0
49762.0,STARLINK-3195,PAYLOAD,2022-06-09 17:24:51,15.08840845,0.0002706,53.2195,164.6471,38.8943,321.2243,6.469e-05,7.41e-06,0.0,0 STARLINK-3195,1 49762U 21115AQ  22160.72559867  .00000741  00000-0  64690-4 0  9999,2 49762  53.2195 164.6471 0002706  38.8943 321.2243 15.08840845 29016,6917.878000000002,95.438,541.615,537.871,0.0
49762.0,STARLINK-3195,PAYLOAD,2022-06-10 04:32:33,15.08843372,0.0002735,53.2195,162.5658,39.9219,320.1974,6.2865e-05,7.12e-06,0.0,0 STARLINK-3195,1 49762U 21115AQ  22161.18927656  .00000712  00000-0  62865-4 0  9995,2 49762  53.2195 162.5658 0002735  39.9219 320.1974 15.08843372 30198,6917.87,95.437,541.627,537.8430000000002,0.0
49762.0,STARLINK-3195,PAYLOAD,2022-06-10 09:18:42,15.08844702,0.0002749,53.2195,161.6737,40.1843,319.9352,6.1321e-05,6.88e-06,0.0,0 STARLINK-3195,1 49762U 21115AQ  22161.38799532  .00000688  00000-0  61321-4 0  9995,2 49762  53.2195 161.6737 0002749  40.1843 319.9352 15.08844702 29112,6917.866,95.437,541.633,537.8290000000002,0.0
49762.0,STARLINK-3195,PAYLOAD,2022-06-10 18:51:01,15.08846684,0.0002756,53.2194,159.8896,40.4775,319.6422,6.733e-05,7.83e-06,0.0,0 STARLINK-3195,1 49762U 21115AQ  22161.78543259  .00000783  00000-0  67330-4 0  9994,2 49762  53.2194 159.8896 0002756  40.4775 319.6422 15.08846684 29173,6917.86,95.437,541.632,537.818,0.0
49762.0,STARLINK-3195,PAYLOAD,2022-06-11 05:58:43,15.08845516,0.0002861,53.2195,157.8083,42.0316,318.0895,3.8785e-05,3.29e-06,0.0,0 STARLINK-3195,1 49762U 21115AQ  22162.24911261  .00000329  00000-0  38785-4 0  9996,2 49762  53.2195 157.8083 0002861  42.0316 318.0895 15.08845516 30358,6917.864000000001,95.437,541.7080000000002,537.749,0.0
49762.0,STARLINK-3195,PAYLOAD,2022-06-11 09:09:30,15.08836711,0.0002752,53.2194,157.2138,41.2172,318.9028,-3.5795e-05,-8.58e-06,0.0,0 STARLINK-3195,1 49762U 21115AQ  22162.38160028 -.00000858  00000-0 -35795-4 0  9995,2 49762  53.2194 157.2138 0002752  41.2172 318.9028 15.08836711 30378,6917.89,95.438,541.659,537.852,0.0
49762.0,STARLINK-3195,PAYLOAD,2022-06-11 17:06:25,15.08836986,0.0002786,53.2195,155.7272,40.153,319.9667,-3.3327e-05,-8.19e-06,0.0,0 STARLINK-3195,1 49762U 21115AQ  22162.71280031 -.00000819  00000-0 -33327-4 0  9995,2 49762  53.2195 155.7272 0002786  40.1530 319.9667 15.08836986 29310,6917.89,95.438,541.682,537.827,0.0
49762.0,STARLINK-3195,PAYLOAD,2022-06-12 05:49:30,15.08839292,0.000282,53.2201,153.3493,39.6067,320.5131,-3.9825e-05,-9.22e-06,0.0,0 STARLINK-3195,1 49762U 21115AQ  22163.24271971 -.00000922  00000-0 -39825-4 0  9991,2 49762  53.2201 153.3493 0002820  39.6067 320.5131 15.08839292 29399,6917.8830000000025,95.438,541.698,537.797,0.0
49762.0,STARLINK-3195,PAYLOAD,2022-06-13 05:40:17,15.08841208,0.000284,53.2206,148.889,41.4237,318.697,4.2309e-05,3.85e-06,0.0,0 STARLINK-3195,1 49762U 21115AQ  22164.23631584  .00000385  00000-0  42309-4 0  9993,2 49762  53.2206 148.8890 0002840  41.4237 318.6970 15.08841208 30656,6917.877,95.437,541.706,537.7769999999998,0.0
49762.0,STARLINK-3195,PAYLOAD,2022-06-13 08:51:03,15.08838845,0.0002853,53.2198,148.2936,43.1037,317.0178,9.2697e-05,1.187e-05,0.0,0 STARLINK-3195,1 49762U 21115AQ  22164.36879559  .00001187  00000-0  92697-4 0  9999,2 49762  53.2198 148.2936 0002853  43.1037 317.0178 15.08838845 29566,6917.884,95.438,541.7230000000002,537.775,0.0
49762.0,STARLINK-3195,PAYLOAD,2022-06-14 08:41:50,15.08843092,0.0002867,53.22,143.8328,46.7501,313.373,0.0001071,1.417e-05,0.0,0 STARLINK-3195,1 49762U 21115AQ  22165.36239354  .00001417  00000-0  10710-3 0  9994,2 49762  53.2200 143.8328 0002867  46.7501 313.3730 15.08843092 30820,6917.871,95.437,541.719,537.753,0.0
49762.0,STARLINK-3195,PAYLOAD,2022-06-14 18:14:10,15.08839545,0.0002816,53.2201,142.0497,44.659,315.4629,1.4522e-05,-5.7e-07,0.0,0 STARLINK-3195,1 49762U 21115AQ  22165.75983920 -.00000057  00000-0  14522-4 0  9998,2 49762  53.2201 142.0497 0002816  44.6590 315.4629 15.08839545 30882,6917.882,95.438,541.695,537.799,0.0
